[{"OBJECT_NAME":"JAY-D2","OBJECT_ID":"2025-009BJ","EPOCH":"2026-03-09T21:48:00.655488","MEAN_MOTION":15.2162627,"ECCENTRICITY":0.00031453,"INCLINATION":97.3937,"RA_OF_ASC_NODE":149.1133,"ARG_OF_PERICENTER":342.3375,"MEAN_ANOMALY":17.7751,"EPHEMERIS_TYPE":0,"CLASSIFICATION_TYPE":"U","NORAD_CAT_ID":62665,"ELEMENT_SET_NO":999,"REV_AT_EPOCH":6363,"BSTAR":0.00024274507,"MEAN_MOTION_DOT":5.414e-5,"MEAN_MOTION_DDOT":0},{"OBJECT_NAME":"OBJECT B","OBJECT_ID":"2025-012B","EPOCH":"2026-03-09T17:03:25.729344","MEAN_MOTION":15.20202755,"ECCENTRICITY":0.00076819,"INCLINATION":97.4305,"RA_OF_ASC_NODE":143.2195,"ARG_OF_PERICENTER":262.0484,"MEAN_ANOMALY":97.9879,"EPHEMERIS_TYPE":0,"CLASSIFICATION_TYPE":"U","NORAD_CAT_ID":62726,"ELEMENT_SET_NO":999,"REV_AT_EPOCH":6313,"BSTAR":0.00027599398,"MEAN_MOTION_DOT":5.916e-5,"MEAN_MOTION_DDOT":0}]
